{"type": "FeatureCollection", "features": [{"type": "Feature", "properties": {"admin_level": 2, "name": "Kota Langsa", "name1": null, "name2": null, "name3": null, "adm0_pcode": "ID", "adm0_name": "Indonesia", "valid_on": "2020-04-01", "valid_to": null, "area_sqkm": 212.46225754, "version": "v01", "lang": "en", "lang1": null, "lang2": null, "lang3": null, "y_coord": 4.4826946, "x_coord": 97.97612314, "adm1_pcode": "ID11", "adm1_name": "Aceh", "adm1_name1": null, "adm1_name2": null, "adm1_name3": null, "adm2_pcode": "ID1173", "adm2_name": "Kota Langsa", "adm2_name1": null, "adm2_name2": null, "adm2_name3": null, "adm3_pcode": null, "adm3_name": null, "adm3_name1": null, "adm3_name2": null, "adm3_name3": null, "adm4_pcode": null, "adm4_name": null, "adm4_name1": null, "adm4_name2": null, "adm4_name3": null}, "geometry": {"type": "Point", "coordinates": [97.9761231440001, 4.482694600000059]}}, {"type": "Feature", "properties": {"admin_level": 3, "name": "Birem Bayeun", "name1": null, "name2": null, "name3": null, "adm0_pcode": "ID", "adm0_name": "Indonesia", "valid_on": "2020-04-01", "valid_to": null, "area_sqkm": 530.41571337, "version": "v01", "lang": "en", "lang1": null, "lang2": null, "lang3": null, "y_coord": 4.48480905, "x_coord": 97.82378128, "adm1_pcode": "ID11", "adm1_name": "Aceh", "adm1_name1": null, "adm1_name2": null, "adm1_name3": null, "adm2_pcode": "ID1105", "adm2_name": "Aceh Timur", "adm2_name1": null, "adm2_name2": null, "adm2_name3": null, "adm3_pcode": "ID1105090", "adm3_name": "Birem Bayeun", "adm3_name1": null, "adm3_name2": null, "adm3_name3": null, "adm4_pcode": null, "adm4_name": null, "adm4_name1": null, "adm4_name2": null, "adm4_name3": null}, "geometry": {"type": "Point", "coordinates": [97.82378127700008, 4.484809050000024]}}, {"type": "Feature", "properties": {"admin_level": 3, "name": "Karang Baru", "name1": null, "name2": null, "name3": null, "adm0_pcode": "ID", "adm0_name": "Indonesia", "valid_on": "2020-04-01", "valid_to": null, "area_sqkm": 128.42155061, "version": "v01", "lang": "en", "lang1": null, "lang2": null, "lang3": null, "y_coord": 4.3367314, "x_coord": 98.02536786, "adm1_pcode": "ID11", "adm1_name": "Aceh", "adm1_name1": null, "adm1_name2": null, "adm1_name3": null, "adm2_pcode": "ID1114", "adm2_name": "Aceh Tamiang", "adm2_name1": null, "adm2_name2": null, "adm2_name3": null, "adm3_pcode": "ID1114070", "adm3_name": "Karang Baru", "adm3_name1": null, "adm3_name2": null, "adm3_name3": null, "adm4_pcode": null, "adm4_name": null, "adm4_name1": null, "adm4_name2": null, "adm4_name3": null}, "geometry": {"type": "Point", "coordinates": [98.02536786000002, 4.336731400000076]}}, {"type": "Feature", "properties": {"admin_level": 3, "name": "Langsa Barat", "name1": null, "name2": null, "name3": null, "adm0_pcode": "ID", "adm0_name": "Indonesia", "valid_on": "2020-04-01", "valid_to": null, "area_sqkm": 46.12240378, "version": "v01", "lang": "en", "lang1": null, "lang2": null, "lang3": null, "y_coord": 4.5142547, "x_coord": 97.98810716, "adm1_pcode": "ID11", "adm1_name": "Aceh", "adm1_name1": null, "adm1_name2": null, "adm1_name3": null, "adm2_pcode": "ID1173", "adm2_name": "Kota Langsa", "adm2_name1": null, "adm2_name2": null, "adm2_name3": null, "adm3_pcode": "ID1173020", "adm3_name": "Langsa Barat", "adm3_name1": null, "adm3_name2": null, "adm3_name3": null, "adm4_pcode": null, "adm4_name": null, "adm4_name1": null, "adm4_name2": null, "adm4_name3": null}, "geometry": {"type": "Point", "coordinates": [97.9881071550002, 4.514254700000095]}}, {"type": "Feature", "properties": {"admin_level": 3, "name": "Langsa Baro", "name1": null, "name2": null, "name3": null, "adm0_pcode": "ID", "adm0_name": "Indonesia", "valid_on": "2020-04-01", "valid_to": null, "area_sqkm": 59.46721845, "version": "v01", "lang": "en", "lang1": null, "lang2": null, "lang3": null, "y_coord": 4.4910963, "x_coord": 97.92432846, "adm1_pcode": "ID11", "adm1_name": "Aceh", "adm1_name1": null, "adm1_name2": null, "adm1_name3": null, "adm2_pcode": "ID1173", "adm2_name": "Kota Langsa", "adm2_name1": null, "adm2_name2": null, "adm2_name3": null, "adm3_pcode": "ID1173021", "adm3_name": "Langsa Baro", "adm3_name1": null, "adm3_name2": null, "adm3_name3": null, "adm4_pcode": null, "adm4_name": null, "adm4_name1": null, "adm4_name2": null, "adm4_name3": null}, "geometry": {"type": "Point", "coordinates": [97.92432846300017, 4.491096300000095]}}, {"type": "Feature", "properties": {"admin_level": 3, "name": "Langsa Kota", "name1": null, "name2": null, "name3": null, "adm0_pcode": "ID", "adm0_name": "Indonesia", "valid_on": "2020-04-01", "valid_to": null, "area_sqkm": 5.78074175, "version": "v01", "lang": "en", "lang1": null, "lang2": null, "lang3": null, "y_coord": 4.47188045, "x_coord": 97.97322549, "adm1_pcode": "ID11", "adm1_name": "Aceh", "adm1_name1": null, "adm1_name2": null, "adm1_name3": null, "adm2_pcode": "ID1173", "adm2_name": "Kota Langsa", "adm2_name1": null, "adm2_name2": null, "adm2_name3": null, "adm3_pcode": "ID1173030", "adm3_name": "Langsa Kota", "adm3_name1": null, "adm3_name2": null, "adm3_name3": null, "adm4_pcode": null, "adm4_name": null, "adm4_name1": null, "adm4_name2": null, "adm4_name3": null}, "geometry": {"type": "Point", "coordinates": [97.97322548900007, 4.471880450000015]}}, {"type": "Feature", "properties": {"admin_level": 3, "name": "Langsa Lama", "name1": null, "name2": null, "name3": null, "adm0_pcode": "ID", "adm0_name": "Indonesia", "valid_on": "2020-04-01", "valid_to": null, "area_sqkm": 27.29574596, "version": "v01", "lang": "en", "lang1": null, "lang2": null, "lang3": null, "y_coord": 4.44783305, "x_coord": 97.95465689, "adm1_pcode": "ID11", "adm1_name": "Aceh", "adm1_name1": null, "adm1_name2": null, "adm1_name3": null, "adm2_pcode": "ID1173", "adm2_name": "Kota Langsa", "adm2_name1": null, "adm2_name2": null, "adm2_name3": null, "adm3_pcode": "ID1173011", "adm3_name": "Langsa Lama", "adm3_name1": null, "adm3_name2": null, "adm3_name3": null, "adm4_pcode": null, "adm4_name": null, "adm4_name1": null, "adm4_name2": null, "adm4_name3": null}, "geometry": {"type": "Point", "coordinates": [97.9546568930001, 4.447833050000042]}}, {"type": "Feature", "properties": {"admin_level": 3, "name": "Langsa Timur", "name1": null, "name2": null, "name3": null, "adm0_pcode": "ID", "adm0_name": "Indonesia", "valid_on": "2020-04-01", "valid_to": null, "area_sqkm": 73.7961476, "version": "v01", "lang": "en", "lang1": null, "lang2": null, "lang3": null, "y_coord": 4.47731175, "x_coord": 98.02078264, "adm1_pcode": "ID11", "adm1_name": "Aceh", "adm1_name1": null, "adm1_name2": null, "adm1_name3": null, "adm2_pcode": "ID1173", "adm2_name": "Kota Langsa", "adm2_name1": null, "adm2_name2": null, "adm2_name3": null, "adm3_pcode": "ID1173010", "adm3_name": "Langsa Timur", "adm3_name1": null, "adm3_name2": null, "adm3_name3": null, "adm4_pcode": null, "adm4_name": null, "adm4_name1": null, "adm4_name2": null, "adm4_name3": null}, "geometry": {"type": "Point", "coordinates": [98.02078263800007, 4.477311750000183]}}, {"type": "Feature", "properties": {"admin_level": 3, "name": "Manyak Payed", "name1": null, "name2": null, "name3": null, "adm0_pcode": "ID", "adm0_name": "Indonesia", "valid_on": "2020-04-01", "valid_to": null, "area_sqkm": 154.65985624, "version": "v01", "lang": "en", "lang1": null, "lang2": null, "lang3": null, "y_coord": 4.43720695, "x_coord": 98.07270832, "adm1_pcode": "ID11", "adm1_name": "Aceh", "adm1_name1": null, "adm1_name2": null, "adm1_name3": null, "adm2_pcode": "ID1114", "adm2_name": "Aceh Tamiang", "adm2_name1": null, "adm2_name2": null, "adm2_name3": null, "adm3_pcode": "ID1114080", "adm3_name": "Manyak Payed", "adm3_name1": null, "adm3_name2": null, "adm3_name3": null, "adm4_pcode": null, "adm4_name": null, "adm4_name1": null, "adm4_name2": null, "adm4_name3": null}, "geometry": {"type": "Point", "coordinates": [98.07270831800014, 4.437206950000132]}}, {"type": "Feature", "properties": {"admin_level": 4, "name": "Afd.II Buket", "name1": null, "name2": null, "name3": null, "adm0_pcode": "ID", "adm0_name": "Indonesia", "valid_on": "2020-04-01", "valid_to": null, "area_sqkm": 4.3126083, "version": "v01", "lang": "en", "lang1": null, "lang2": null, "lang3": null, "y_coord": 4.41420825, "x_coord": 97.96990086, "adm1_pcode": "ID11", "adm1_name": "Aceh", "adm1_name1": null, "adm1_name2": null, "adm1_name3": null, "adm2_pcode": "ID1105", "adm2_name": "Aceh Timur", "adm2_name1": null, "adm2_name2": null, "adm2_name3": null, "adm3_pcode": "ID1105090", "adm3_name": "Birem Bayeun", "adm3_name1": null, "adm3_name2": null, "adm3_name3": null, "adm4_pcode": "ID1105090003", "adm4_name": "Afd.II Buket", "adm4_name1": null, "adm4_name2": null, "adm4_name3": null}, "geometry": {"type": "Point", "coordinates": [97.96990085700014, 4.414208250000058]}}, {"type": "Feature", "properties": {"admin_level": 4, "name": "Alue Berawe", "name1": null, "name2": null, "name3": null, "adm0_pcode": "ID", "adm0_name": "Indonesia", "valid_on": "2020-04-01", "valid_to": null, "area_sqkm": 1.72147033, "version": "v01", "lang": "en", "lang1": null, "lang2": null, "lang3": null, "y_coord": 4.46947675, "x_coord": 97.98787445, "adm1_pcode": "ID11", "adm1_name": "Aceh", "adm1_name1": null, "adm1_name2": null, "adm1_name3": null, "adm2_pcode": "ID1173", "adm2_name": "Kota Langsa", "adm2_name1": null, "adm2_name2": null, "adm2_name3": null, "adm3_pcode": "ID1173030", "adm3_name": "Langsa Kota", "adm3_name1": null, "adm3_name2": null, "adm3_name3": null, "adm4_pcode": "ID1173030007", "adm4_name": "Alue Berawe", "adm4_name1": null, "adm4_name2": null, "adm4_name3": null}, "geometry": {"type": "Point", "coordinates": [97.98787445100015, 4.469476750000126]}}, {"type": "Feature", "properties": {"admin_level": 4, "name": "Alue Buloh", "name1": null, "name2": null, "name3": null, "adm0_pcode": "ID", "adm0_name": "Indonesia", "valid_on": "2020-04-01", "valid_to": null, "area_sqkm": 18.60706742, "version": "v01", "lang": "en", "lang1": null, "lang2": null, "lang3": null, "y_coord": 4.420964, "x_coord": 97.9449397, "adm1_pcode": "ID11", "adm1_name": "Aceh", "adm1_name1": null, "adm1_name2": null, "adm1_name3": null, "adm2_pcode": "ID1105", "adm2_name": "Aceh Timur", "adm2_name1": null, "adm2_name2": null, "adm2_name3": null, "adm3_pcode": "ID1105090", "adm3_name": "Birem Bayeun", "adm3_name1": null, "adm3_name2": null, "adm3_name3": null, "adm4_pcode": "ID1105090007", "adm4_name": "Alue Buloh", "adm4_name1": null, "adm4_name2": null, "adm4_name3": null}, "geometry": {"type": "Point", "coordinates": [97.94493969700005, 4.420964]}}, {"type": "Feature", "properties": {"admin_level": 4, "name": "Alue Canang", "name1": null, "name2": null, "name3": null, "adm0_pcode": "ID", "adm0_name": "Indonesia", "valid_on": "2020-04-01", "valid_to": null, "area_sqkm": 19.89323725, "version": "v01", "lang": "en", "lang1": null, "lang2": null, "lang3": null, "y_coord": 4.37666805, "x_coord": 97.92399637, "adm1_pcode": "ID11", "adm1_name": "Aceh", "adm1_name1": null, "adm1_name2": null, "adm1_name3": null, "adm2_pcode": "ID1105", "adm2_name": "Aceh Timur", "adm2_name1": null, "adm2_name2": null, "adm2_name3": null, "adm3_pcode": "ID1105090", "adm3_name": "Birem Bayeun", "adm3_name1": null, "adm3_name2": null, "adm3_name3": null, "adm4_pcode": "ID1105090005", "adm4_name": "Alue Canang", "adm4_name1": null, "adm4_name2": null, "adm4_name3": null}, "geometry": {"type": "Point", "coordinates": [97.92399637000011, 4.376668050000092]}}, {"type": "Feature", "properties": {"admin_level": 4, "name": "Alue Drien", "name1": null, "name2": null, "name3": null, "adm0_pcode": "ID", "adm0_name": "Indonesia", "valid_on": "2020-04-01", "valid_to": null, "area_sqkm": 1.54478797, "version": "v01", "lang": "en", "lang1": null, "lang2": null, "lang3": null, "y_coord": 4.4011065, "x_coord": 97.97025551, "adm1_pcode": "ID11", "adm1_name": "Aceh", "adm1_name1": null, "adm1_name2": null, "adm1_name3": null, "adm2_pcode": "ID1105", "adm2_name": "Aceh Timur", "adm2_name1": null, "adm2_name2": null, "adm2_name3": null, "adm3_pcode": "ID1105090", "adm3_name": "Birem Bayeun", "adm3_name1": null, "adm3_name2": null, "adm3_name3": null, "adm4_pcode": "ID1105090004", "adm4_name": "Alue Drien", "adm4_name1": null, "adm4_name2": null, "adm4_name3": null}, "geometry": {"type": "Point", "coordinates": [97.97025551400009, 4.401106500000083]}}, {"type": "Feature", "properties": {"admin_level": 4, "name": "Alue Dua", "name1": null, "name2": null, "name3": null, "adm0_pcode": "ID", "adm0_name": "Indonesia", "valid_on": "2020-04-01", "valid_to": null, "area_sqkm": 6.30352895, "version": "v01", "lang": "en", "lang1": null, "lang2": null, "lang3": null, "y_coord": 4.5186306, "x_coord": 97.95312332, "adm1_pcode": "ID11", "adm1_name": "Aceh", "adm1_name1": null, "adm1_name2": null, "adm1_name3": null, "adm2_pcode": "ID1173", "adm2_name": "Kota Langsa", "adm2_name1": null, "adm2_name2": null, "adm2_name3": null, "adm3_pcode": "ID1173021", "adm3_name": "Langsa Baro", "adm3_name1": null, "adm3_name2": null, "adm3_name3": null, "adm4_pcode": "ID1173021002", "adm4_name": "Alue Dua", "adm4_name1": null, "adm4_name2": null, "adm4_name3": null}, "geometry": {"type": "Point", "coordinates": [97.95312331900004, 4.518630600000165]}}, {"type": "Feature", "properties": {"admin_level": 4, "name": "Alue Dua Bakaran Batee", "name1": null, "name2": null, "name3": null, "adm0_pcode": "ID", "adm0_name": "Indonesia", "valid_on": "2020-04-01", "valid_to": null, "area_sqkm": 1.64709078, "version": "v01", "lang": "en", "lang1": null, "lang2": null, "lang3": null, "y_coord": 4.5214805, "x_coord": 97.94081481, "adm1_pcode": "ID11", "adm1_name": "Aceh", "adm1_name1": null, "adm1_name2": null, "adm1_name3": null, "adm2_pcode": "ID1173", "adm2_name": "Kota Langsa", "adm2_name1": null, "adm2_name2": null, "adm2_name3": null, "adm3_pcode": "ID1173021", "adm3_name": "Langsa Baro", "adm3_name1": null, "adm3_name2": null, "adm3_name3": null, "adm4_pcode": "ID1173021010", "adm4_name": "Alue Dua Bakaran Batee", "adm4_name1": null, "adm4_name2": null, "adm4_name3": null}, "geometry": {"type": "Point", "coordinates": [97.94081481100017, 4.521480500000052]}}, {"type": "Feature", "properties": {"admin_level": 4, "name": "Alue Gadeng", "name1": null, "name2": null, "name3": null, "adm0_pcode": "ID", "adm0_name": "Indonesia", "valid_on": "2020-04-01", "valid_to": null, "area_sqkm": 1.19947874, "version": "v01", "lang": "en", "lang1": null, "lang2": null, "lang3": null, "y_coord": 4.57677065, "x_coord": 97.91118197, "adm1_pcode": "ID11", "adm1_name": "Aceh", "adm1_name1": null, "adm1_name2": null, "adm1_name3": null, "adm2_pcode": "ID1105", "adm2_name": "Aceh Timur", "adm2_name1": null, "adm2_name2": null, "adm2_name3": null, "adm3_pcode": "ID1105090", "adm3_name": "Birem Bayeun", "adm3_name1": null, "adm3_name2": null, "adm3_name3": null, "adm4_pcode": "ID1105090022", "adm4_name": "Alue Gadeng", "adm4_name1": null, "adm4_name2": null, "adm4_name3": null}, "geometry": {"type": "Point", "coordinates": [97.91118196700006, 4.576770650000128]}}, {"type": "Feature", "properties": {"admin_level": 4, "name": "Alue Gadeng Satu", "name1": null, "name2": null, "name3": null, "adm0_pcode": "ID", "adm0_name": "Indonesia", "valid_on": "2020-04-01", "valid_to": null, "area_sqkm": 8.62493417, "version": "v01", "lang": "en", "lang1": null, "lang2": null, "lang3": null, "y_coord": 4.5178231, "x_coord": 97.89231888, "adm1_pcode": "ID11", "adm1_name": "Aceh", "adm1_name1": null, "adm1_name2": null, "adm1_name3": null, "adm2_pcode": "ID1105", "adm2_name": "Aceh Timur", "adm2_name1": null, "adm2_name2": null, "adm2_name3": null, "adm3_pcode": "ID1105090", "adm3_name": "Birem Bayeun", "adm3_name1": null, "adm3_name2": null, "adm3_name3": null, "adm4_pcode": "ID1105090014", "adm4_name": "Alue Gadeng Satu", "adm4_name1": null, "adm4_name2": null, "adm4_name3": null}, "geometry": {"type": "Point", "coordinates": [97.89231888100005, 4.517823100000101]}}, {"type": "Feature", "properties": {"admin_level": 4, "name": "Alue Ie Puteh", "name1": null, "name2": null, "name3": null, "adm0_pcode": "ID", "adm0_name": "Indonesia", "valid_on": "2020-04-01", "valid_to": null, "area_sqkm": 0.50439263, "version": "v01", "lang": "en", "lang1": null, "lang2": null, "lang3": null, "y_coord": 4.4317088, "x_coord": 98.05168537, "adm1_pcode": "ID11", "adm1_name": "Aceh", "adm1_name1": null, "adm1_name2": null, "adm1_name3": null, "adm2_pcode": "ID1114", "adm2_name": "Aceh Tamiang", "adm2_name1": null, "adm2_name2": null, "adm2_name3": null, "adm3_pcode": "ID1114080", "adm3_name": "Manyak Payed", "adm3_name1": null, "adm3_name2": null, "adm3_name3": null, "adm4_pcode": "ID1114080019", "adm4_name": "Alue Ie Puteh", "adm4_name1": null, "adm4_name2": null, "adm4_name3": null}, "geometry": {"type": "Point", "coordinates": [98.05168536800011, 4.431708800000138]}}, {"type": "Feature", "properties": {"admin_level": 4, "name": "Alue Merbau", "name1": null, "name2": null, "name3": null, "adm0_pcode": "ID", "adm0_name": "Indonesia", "valid_on": "2020-04-01", "valid_to": null, "area_sqkm": 1.9766243, "version": "v01", "lang": "en", "lang1": null, "lang2": null, "lang3": null, "y_coord": 4.4278112, "x_coord": 98.02296355, "adm1_pcode": "ID11", "adm1_name": "Aceh", "adm1_name1": null, "adm1_name2": null, "adm1_name3": null, "adm2_pcode": "ID1173", "adm2_name": "Kota Langsa", "adm2_name1": null, "adm2_name2": null, "adm2_name3": null, "adm3_pcode": "ID1173010", "adm3_name": "Langsa Timur", "adm3_name1": null, "adm3_name2": null, "adm3_name3": null, "adm4_pcode": "ID1173010015", "adm4_name": "Alue Merbau", "adm4_name1": null, "adm4_name2": null, "adm4_name3": null}, "geometry": {"type": "Point", "coordinates": [98.02296354500015, 4.427811200000065]}}, {"type": "Feature", "properties": {"admin_level": 4, "name": "Alue Pineung", "name1": null, "name2": null, "name3": null, "adm0_pcode": "ID", "adm0_name": "Indonesia", "valid_on": "2020-04-01", "valid_to": null, "area_sqkm": 0.81608443, "version": "v01", "lang": "en", "lang1": null, "lang2": null, "lang3": null, "y_coord": 4.4419096, "x_coord": 98.01258506, "adm1_pcode": "ID11", "adm1_name": "Aceh", "adm1_name1": null, "adm1_name2": null, "adm1_name3": null, "adm2_pcode": "ID1173", "adm2_name": "Kota Langsa", "adm2_name1": null, "adm2_name2": null, "adm2_name3": null, "adm3_pcode": "ID1173010", "adm3_name": "Langsa Timur", "adm3_name1": null, "adm3_name2": null, "adm3_name3": null, "adm4_pcode": "ID1173010018", "adm4_name": "Alue Pineung", "adm4_name1": null, "adm4_name2": null, "adm4_name3": null}, "geometry": {"type": "Point", "coordinates": [98.01258505800018, 4.441909600000031]}}, {"type": "Feature", "properties": {"admin_level": 4, "name": "Alue Pineung Timue", "name1": null, "name2": null, "name3": null, "adm0_pcode": "ID", "adm0_name": "Indonesia", "valid_on": "2020-04-01", "valid_to": null, "area_sqkm": 1.00205826, "version": "v01", "lang": "en", "lang1": null, "lang2": null, "lang3": null, "y_coord": 4.4378259, "x_coord": 98.01555968, "adm1_pcode": "ID11", "adm1_name": "Aceh", "adm1_name1": null, "adm1_name2": null, "adm1_name3": null, "adm2_pcode": "ID1173", "adm2_name": "Kota Langsa", "adm2_name1": null, "adm2_name2": null, "adm2_name3": null, "adm3_pcode": "ID1173010", "adm3_name": "Langsa Timur", "adm3_name1": null, "adm3_name2": null, "adm3_name3": null, "adm4_pcode": "ID1173010022", "adm4_name": "Alue Pineung Timue", "adm4_name1": null, "adm4_name2": null, "adm4_name3": null}, "geometry": {"type": "Point", "coordinates": [98.01555968000014, 4.437825900000178]}}, {"type": "Feature", "properties": {"admin_level": 4, "name": "Alue Punti", "name1": null, "name2": null, "name3": null, "adm0_pcode": "ID", "adm0_name": "Indonesia", "valid_on": "2020-04-01", "valid_to": null, "area_sqkm": 27.31759951, "version": "v01", "lang": "en", "lang1": null, "lang2": null, "lang3": null, "y_coord": 4.59921185, "x_coord": 97.82764799, "adm1_pcode": "ID11", "adm1_name": "Aceh", "adm1_name1": null, "adm1_name2": null, "adm1_name3": null, "adm2_pcode": "ID1105", "adm2_name": "Aceh Timur", "adm2_name1": null, "adm2_name2": null, "adm2_name3": null, "adm3_pcode": "ID1105100", "adm3_name": "Rantau Selamat", "adm3_name1": null, "adm3_name2": null, "adm3_name3": null, "adm4_pcode": "ID1105100003", "adm4_name": "Alue Punti", "adm4_name1": null, "adm4_name2": null, "adm4_name3": null}, "geometry": {"type": "Point", "coordinates": [97.82764798500006, 4.599211850000074]}}, {"type": "Feature", "properties": {"admin_level": 4, "name": "Alue Raya", "name1": null, "name2": null, "name3": null, "adm0_pcode": "ID", "adm0_name": "Indonesia", "valid_on": "2020-04-01", "valid_to": null, "area_sqkm": 19.35469788, "version": "v01", "lang": "en", "lang1": null, "lang2": null, "lang3": null, "y_coord": 4.6084402, "x_coord": 97.98103517, "adm1_pcode": "ID11", "adm1_name": "Aceh", "adm1_name1": null, "adm1_name2": null, "adm1_name3": null, "adm2_pcode": "ID1105", "adm2_name": "Aceh Timur", "adm2_name1": null, "adm2_name2": null, "adm2_name3": null, "adm3_pcode": "ID1105100", "adm3_name": "Rantau Selamat", "adm3_name1": null, "adm3_name2": null, "adm3_name3": null, "adm4_pcode": "ID1105100012", "adm4_name": "Alue Raya", "adm4_name1": null, "adm4_name2": null, "adm4_name3": null}, "geometry": {"type": "Point", "coordinates": [97.98103517500005, 4.608440200000189]}}, {"type": "Feature", "properties": {"admin_level": 4, "name": "Alue Sentang", "name1": null, "name2": null, "name3": null, "adm0_pcode": "ID", "adm0_name": "Indonesia", "valid_on": "2020-04-01", "valid_to": null, "area_sqkm": 35.68289919, "version": "v01", "lang": "en", "lang1": null, "lang2": null, "lang3": null, "y_coord": 4.56459415, "x_coord": 97.83721698, "adm1_pcode": "ID11", "adm1_name": "Aceh", "adm1_name1": null, "adm1_name2": null, "adm1_name3": null, "adm2_pcode": "ID1105", "adm2_name": "Aceh Timur", "adm2_name1": null, "adm2_name2": null, "adm2_name3": null, "adm3_pcode": "ID1105090", "adm3_name": "Birem Bayeun", "adm3_name1": null, "adm3_name2": null, "adm3_name3": null, "adm4_pcode": "ID1105090026", "adm4_name": "Alue Sentang", "adm4_name1": null, "adm4_name2": null, "adm4_name3": null}, "geometry": {"type": "Point", "coordinates": [97.83721697599998, 4.564594150000175]}}, {"type": "Feature", "properties": {"admin_level": 4, "name": "Alue Sentang", "name1": null, "name2": null, "name3": null, "adm0_pcode": "ID", "adm0_name": "Indonesia", "valid_on": "2020-04-01", "valid_to": null, "area_sqkm": 23.17858849, "version": "v01", "lang": "en", "lang1": null, "lang2": null, "lang3": null, "y_coord": 4.47883695, "x_coord": 98.0738696, "adm1_pcode": "ID11", "adm1_name": "Aceh", "adm1_name1": null, "adm1_name2": null, "adm1_name3": null, "adm2_pcode": "ID1114", "adm2_name": "Aceh Tamiang", "adm2_name1": null, "adm2_name2": null, "adm2_name3": null, "adm3_pcode": "ID1114080", "adm3_name": "Manyak Payed", "adm3_name1": null, "adm3_name2": null, "adm3_name3": null, "adm4_pcode": "ID1114080024", "adm4_name": "Alue Sentang", "adm4_name1": null, "adm4_name2": null, "adm4_name3": null}, "geometry": {"type": "Point", "coordinates": [98.07386960100001, 4.478836950000073]}}, {"type": "Feature", "properties": {"admin_level": 4, "name": "Alue Teh", "name1": null, "name2": null, "name3": null, "adm0_pcode": "ID", "adm0_name": "Indonesia", "valid_on": "2020-04-01", "valid_to": null, "area_sqkm": 20.34728181, "version": "v01", "lang": "en", "lang1": null, "lang2": null, "lang3": null, "y_coord": 4.48943235, "x_coord": 97.87394307, "adm1_pcode": "ID11", "adm1_name": "Aceh", "adm1_name1": null, "adm1_name2": null, "adm1_name3": null, "adm2_pcode": "ID1105", "adm2_name": "Aceh Timur", "adm2_name1": null, "adm2_name2": null, "adm2_name3": null, "adm3_pcode": "ID1105090", "adm3_name": "Birem Bayeun", "adm3_name1": null, "adm3_name2": null, "adm3_name3": null, "adm4_pcode": "ID1105090010", "adm4_name": "Alue Teh", "adm4_name1": null, "adm4_name2": null, "adm4_name3": null}, "geometry": {"type": "Point", "coordinates": [97.87394306800007, 4.489432350000129]}}, {"type": "Feature", "properties": {"admin_level": 4, "name": "Alur Baung", "name1": null, "name2": null, "name3": null, "adm0_pcode": "ID", "adm0_name": "Indonesia", "valid_on": "2020-04-01", "valid_to": null, "area_sqkm": 6.54936815, "version": "v01", "lang": "en", "lang1": null, "lang2": null, "lang3": null, "y_coord": 4.34928155, "x_coord": 98.0289414, "adm1_pcode": "ID11", "adm1_name": "Aceh", "adm1_name1": null, "adm1_name2": null, "adm1_name3": null, "adm2_pcode": "ID1114", "adm2_name": "Aceh Tamiang", "adm2_name1": null, "adm2_name2": null, "adm2_name3": null, "adm3_pcode": "ID1114070", "adm3_name": "Karang Baru", "adm3_name1": null, "adm3_name2": null, "adm3_name3": null, "adm4_pcode": "ID1114070033", "adm4_name": "Alur Baung", "adm4_name1": null, "adm4_name2": null, "adm4_name3": null}, "geometry": {"type": "Point", "coordinates": [98.02894139700004, 4.349281550000057]}}, {"type": "Feature", "properties": {"admin_level": 4, "name": "Alur Bemban", "name1": null, "name2": null, "name3": null, "adm0_pcode": "ID", "adm0_name": "Indonesia", "valid_on": "2020-04-01", "valid_to": null, "area_sqkm": 1.33756797, "version": "v01", "lang": "en", "lang1": null, "lang2": null, "lang3": null, "y_coord": 4.3488509, "x_coord": 98.08279617, "adm1_pcode": "ID11", "adm1_name": "Aceh", "adm1_name1": null, "adm1_name2": null, "adm1_name3": null, "adm2_pcode": "ID1114", "adm2_name": "Aceh Tamiang", "adm2_name1": null, "adm2_name2": null, "adm2_name3": null, "adm3_pcode": "ID1114070", "adm3_name": "Karang Baru", "adm3_name1": null, "adm3_name2": null, "adm3_name3": null, "adm4_pcode": "ID1114070035", "adm4_name": "Alur Bemban", "adm4_name1": null, "adm4_name2": null, "adm4_name3": null}, "geometry": {"type": "Point", "coordinates": [98.08279616900018, 4.348850900000116]}}, {"type": "Feature", "properties": {"admin_level": 4, "name": "Alur Cucur", "name1": null, "name2": null, "name3": null, "adm0_pcode": "ID", "adm0_name": "Indonesia", "valid_on": "2020-04-01", "valid_to": null, "area_sqkm": 2.49237885, "version": "v01", "lang": "en", "lang1": null, "lang2": null, "lang3": null, "y_coord": 4.34255135, "x_coord": 98.09685264, "adm1_pcode": "ID11", "adm1_name": "Aceh", "adm1_name1": null, "adm1_name2": null, "adm1_name3": null, "adm2_pcode": "ID1114", "adm2_name": "Aceh Tamiang", "adm2_name1": null, "adm2_name2": null, "adm2_name3": null, "adm3_pcode": "ID1114030", "adm3_name": "Rantau", "adm3_name1": null, "adm3_name2": null, "adm3_name3": null, "adm4_pcode": "ID1114030014", "adm4_name": "Alur Cucur", "adm4_name1": null, "adm4_name2": null, "adm4_name3": null}, "geometry": {"type": "Point", "coordinates": [98.09685263900008, 4.342551350000065]}}, {"type": "Feature", "properties": {"admin_level": 4, "name": "Alur Lhok", "name1": null, "name2": null, "name3": null, "adm0_pcode": "ID", "adm0_name": "Indonesia", "valid_on": "2020-04-01", "valid_to": null, "area_sqkm": 12.05997345, "version": "v01", "lang": "en", "lang1": null, "lang2": null, "lang3": null, "y_coord": 4.37123275, "x_coord": 98.01973159, "adm1_pcode": "ID11", "adm1_name": "Aceh", "adm1_name1": null, "adm1_name2": null, "adm1_name3": null, "adm2_pcode": "ID1114", "adm2_name": "Aceh Tamiang", "adm2_name1": null, "adm2_name2": null, "adm2_name3": null, "adm3_pcode": "ID1114070", "adm3_name": "Karang Baru", "adm3_name1": null, "adm3_name2": null, "adm3_name3": null, "adm4_pcode": "ID1114070039", "adm4_name": "Alur Lhok", "adm4_name1": null, "adm4_name2": null, "adm4_name3": null}, "geometry": {"type": "Point", "coordinates": [98.0197315910001, 4.371232750000161]}}, {"type": "Feature", "properties": {"admin_level": 4, "name": "Alur Manis", "name1": null, "name2": null, "name3": null, "adm0_pcode": "ID", "adm0_name": "Indonesia", "valid_on": "2020-04-01", "valid_to": null, "area_sqkm": 2.79416879, "version": "v01", "lang": "en", "lang1": null, "lang2": null, "lang3": null, "y_coord": 4.35608445, "x_coord": 98.09959576, "adm1_pcode": "ID11", "adm1_name": "Aceh", "adm1_name1": null, "adm1_name2": null, "adm1_name3": null, "adm2_pcode": "ID1114", "adm2_name": "Aceh Tamiang", "adm2_name1": null, "adm2_name2": null, "adm2_name3": null, "adm3_pcode": "ID1114030", "adm3_name": "Rantau", "adm3_name1": null, "adm3_name2": null, "adm3_name3": null, "adm4_pcode": "ID1114030016", "adm4_name": "Alur Manis", "adm4_name1": null, "adm4_name2": null, "adm4_name3": null}, "geometry": {"type": "Point", "coordinates": [98.09959576500017, 4.356084449999969]}}, {"type": "Feature", "properties": {"admin_level": 4, "name": "Alur Selalas", "name1": null, "name2": null, "name3": null, "adm0_pcode": "ID", "adm0_name": "Indonesia", "valid_on": "2020-04-01", "valid_to": null, "area_sqkm": 10.90328567, "version": "v01", "lang": "en", "lang1": null, "lang2": null, "lang3": null, "y_coord": 4.33397715, "x_coord": 97.98480098, "adm1_pcode": "ID11", "adm1_name": "Aceh", "adm1_name1": null, "adm1_name2": null, "adm1_name3": null, "adm2_pcode": "ID1114", "adm2_name": "Aceh Tamiang", "adm2_name1": null, "adm2_name2": null, "adm2_name3": null, "adm3_pcode": "ID1114070", "adm3_name": "Karang Baru", "adm3_name1": null, "adm3_name2": null, "adm3_name3": null, "adm4_pcode": "ID1114070032", "adm4_name": "Alur Selalas", "adm4_name1": null, "adm4_name2": null, "adm4_name3": null}, "geometry": {"type": "Point", "coordinates": [97.98480097600014, 4.333977150000123]}}, {"type": "Feature", "properties": {"admin_level": 4, "name": "Alur Seuleumak", "name1": null, "name2": null, "name3": null, "adm0_pcode": "ID", "adm0_name": "Indonesia", "valid_on": "2020-04-01", "valid_to": null, "area_sqkm": 2.67817725, "version": "v01", "lang": "en", "lang1": null, "lang2": null, "lang3": null, "y_coord": 4.6011726, "x_coord": 97.89885243, "adm1_pcode": "ID11", "adm1_name": "Aceh", "adm1_name1": null, "adm1_name2": null, "adm1_name3": null, "adm2_pcode": "ID1105", "adm2_name": "Aceh Timur", "adm2_name1": null, "adm2_name2": null, "adm2_name3": null, "adm3_pcode": "ID1105100", "adm3_name": "Rantau Selamat", "adm3_name1": null, "adm3_name2": null, "adm3_name3": null, "adm4_pcode": "ID1105100007", "adm4_name": "Alur Seuleumak", "adm4_name1": null, "adm4_name2": null, "adm4_name3": null}, "geometry": {"type": "Point", "coordinates": [97.89885242600019, 4.601172600000154]}}, {"type": "Feature", "properties": {"admin_level": 4, "name": "Aramiyah", "name1": null, "name2": null, "name3": null, "adm0_pcode": "ID", "adm0_name": "Indonesia", "valid_on": "2020-04-01", "valid_to": null, "area_sqkm": 2.66467339, "version": "v01", "lang": "en", "lang1": null, "lang2": null, "lang3": null, "y_coord": 4.55157075, "x_coord": 97.92983864, "adm1_pcode": "ID11", "adm1_name": "Aceh", "adm1_name1": null, "adm1_name2": null, "adm1_name3": null, "adm2_pcode": "ID1105", "adm2_name": "Aceh Timur", "adm2_name1": null, "adm2_name2": null, "adm2_name3": null, "adm3_pcode": "ID1105090", "adm3_name": "Birem Bayeun", "adm3_name1": null, "adm3_name2": null, "adm3_name3": null, "adm4_pcode": "ID1105090017", "adm4_name": "Aramiyah", "adm4_name1": null, "adm4_name2": null, "adm4_name3": null}, "geometry": {"type": "Point", "coordinates": [97.92983864100006, 4.551570750000167]}}, {"type": "Feature", "properties": {"admin_level": 4, "name": "Asam Peutek", "name1": null, "name2": null, "name3": null, "adm0_pcode": "ID", "adm0_name": "Indonesia", "valid_on": "2020-04-01", "valid_to": null, "area_sqkm": 3.74172492, "version": "v01", "lang": "en", "lang1": null, "lang2": null, "lang3": null, "y_coord": 4.43586565, "x_coord": 97.98333569, "adm1_pcode": "ID11", "adm1_name": "Aceh", "adm1_name1": null, "adm1_name2": null, "adm1_name3": null, "adm2_pcode": "ID1173", "adm2_name": "Kota Langsa", "adm2_name1": null, "adm2_name2": null, "adm2_name3": null, "adm3_pcode": "ID1173011", "adm3_name": "Langsa Lama", "adm3_name1": null, "adm3_name2": null, "adm3_name3": null, "adm4_pcode": "ID1173011008", "adm4_name": "Asam Peutek", "adm4_name1": null, "adm4_name2": null, "adm4_name3": null}, "geometry": {"type": "Point", "coordinates": [97.98333568900011, 4.435865649999982]}}, {"type": "Feature", "properties": {"admin_level": 4, "name": "Bandung Jaya", "name1": null, "name2": null, "name3": null, "adm0_pcode": "ID", "adm0_name": "Indonesia", "valid_on": "2020-04-01", "valid_to": null, "area_sqkm": 17.81033227, "version": "v01", "lang": "en", "lang1": null, "lang2": null, "lang3": null, "y_coord": 4.37383365, "x_coord": 97.96601223, "adm1_pcode": "ID11", "adm1_name": "Aceh", "adm1_name1": null, "adm1_name2": null, "adm1_name3": null, "adm2_pcode": "ID1114", "adm2_name": "Aceh Tamiang", "adm2_name1": null, "adm2_name2": null, "adm2_name3": null, "adm3_pcode": "ID1114080", "adm3_name": "Manyak Payed", "adm3_name1": null, "adm3_name2": null, "adm3_name3": null, "adm4_pcode": "ID1114080033", "adm4_name": "Bandung Jaya", "adm4_name1": null, "adm4_name2": null, "adm4_name3": null}, "geometry": {"type": "Point", "coordinates": [97.96601222700014, 4.373833650000051]}}, {"type": "Feature", "properties": {"admin_level": 4, "name": "Baroh Langsa Lama", "name1": null, "name2": null, "name3": null, "adm0_pcode": "ID", "adm0_name": "Indonesia", "valid_on": "2020-04-01", "valid_to": null, "area_sqkm": 2.18401441, "version": "v01", "lang": "en", "lang1": null, "lang2": null, "lang3": null, "y_coord": 4.46430395, "x_coord": 97.99862414, "adm1_pcode": "ID11", "adm1_name": "Aceh", "adm1_name1": null, "adm1_name2": null, "adm1_name3": null, "adm2_pcode": "ID1173", "adm2_name": "Kota Langsa", "adm2_name1": null, "adm2_name2": null, "adm2_name3": null, "adm3_pcode": "ID1173011", "adm3_name": "Langsa Lama", "adm3_name1": null, "adm3_name2": null, "adm3_name3": null, "adm4_pcode": "ID1173011009", "adm4_name": "Baroh Langsa Lama", "adm4_name1": null, "adm4_name2": null, "adm4_name3": null}, "geometry": {"type": "Point", "coordinates": [97.99862414300014, 4.464303950000044]}}, {"type": "Feature", "properties": {"admin_level": 4, "name": "Bate Puteh", "name1": null, "name2": null, "name3": null, "adm0_pcode": "ID", "adm0_name": "Indonesia", "valid_on": "2020-04-01", "valid_to": null, "area_sqkm": 1.51179069, "version": "v01", "lang": "en", "lang1": null, "lang2": null, "lang3": null, "y_coord": 4.4550954, "x_coord": 97.99151977, "adm1_pcode": "ID11", "adm1_name": "Aceh", "adm1_name1": null, "adm1_name2": null, "adm1_name3": null, "adm2_pcode": "ID1173", "adm2_name": "Kota Langsa", "adm2_name1": null, "adm2_name2": null, "adm2_name3": null, "adm3_pcode": "ID1173011", "adm3_name": "Langsa Lama", "adm3_name1": null, "adm3_name2": null, "adm3_name3": null, "adm4_pcode": "ID1173011015", "adm4_name": "Bate Puteh", "adm4_name1": null, "adm4_name2": null, "adm4_name3": null}, "geometry": {"type": "Point", "coordinates": [97.99151976500013, 4.455095400000175]}}, {"type": "Feature", "properties": {"admin_level": 4, "name": "Bayeun", "name1": null, "name2": null, "name3": null, "adm0_pcode": "ID", "adm0_name": "Indonesia", "valid_on": "2020-04-01", "valid_to": null, "area_sqkm": 6.28491888, "version": "v01", "lang": "en", "lang1": null, "lang2": null, "lang3": null, "y_coord": 4.5815905, "x_coord": 97.96045597, "adm1_pcode": "ID11", "adm1_name": "Aceh", "adm1_name1": null, "adm1_name2": null, "adm1_name3": null, "adm2_pcode": "ID1105", "adm2_name": "Aceh Timur", "adm2_name1": null, "adm2_name2": null, "adm2_name3": null, "adm3_pcode": "ID1105090", "adm3_name": "Birem Bayeun", "adm3_name1": null, "adm3_name2": null, "adm3_name3": null, "adm4_pcode": "ID1105090021", "adm4_name": "Bayeun", "adm4_name1": null, "adm4_name2": null, "adm4_name3": null}, "geometry": {"type": "Point", "coordinates": [97.96045597300008, 4.581590500000118]}}, {"type": "Feature", "properties": {"admin_level": 4, "name": "Benteng", "name1": null, "name2": null, "name3": null, "adm0_pcode": "ID", "adm0_name": "Indonesia", "valid_on": "2020-04-01", "valid_to": null, "area_sqkm": 5.66246986, "version": "v01", "lang": "en", "lang1": null, "lang2": null, "lang3": null, "y_coord": 4.4054236, "x_coord": 97.99147625, "adm1_pcode": "ID11", "adm1_name": "Aceh", "adm1_name1": null, "adm1_name2": null, "adm1_name3": null, "adm2_pcode": "ID1105", "adm2_name": "Aceh Timur", "adm2_name1": null, "adm2_name2": null, "adm2_name3": null, "adm3_pcode": "ID1105090", "adm3_name": "Birem Bayeun", "adm3_name1": null, "adm3_name2": null, "adm3_name3": null, "adm4_pcode": "ID1105090002", "adm4_name": "Benteng", "adm4_name1": null, "adm4_name2": null, "adm4_name3": null}, "geometry": {"type": "Point", "coordinates": [97.99147624600016, 4.405423600000063]}}, {"type": "Feature", "properties": {"admin_level": 4, "name": "Benteng Anyer", "name1": null, "name2": null, "name3": null, "adm0_pcode": "ID", "adm0_name": "Indonesia", "valid_on": "2020-04-01", "valid_to": null, "area_sqkm": 1.28426161, "version": "v01", "lang": "en", "lang1": null, "lang2": null, "lang3": null, "y_coord": 4.4141984, "x_coord": 98.04905681, "adm1_pcode": "ID11", "adm1_name": "Aceh", "adm1_name1": null, "adm1_name2": null, "adm1_name3": null, "adm2_pcode": "ID1114", "adm2_name": "Aceh Tamiang", "adm2_name1": null, "adm2_name2": null, "adm2_name3": null, "adm3_pcode": "ID1114080", "adm3_name": "Manyak Payed", "adm3_name1": null, "adm3_name2": null, "adm3_name3": null, "adm4_pcode": "ID1114080008", "adm4_name": "Benteng Anyer", "adm4_name1": null, "adm4_name2": null, "adm4_name3": null}, "geometry": {"type": "Point", "coordinates": [98.04905680600001, 4.414198400000089]}}, {"type": "Feature", "properties": {"admin_level": 4, "name": "Birem Puntong", "name1": null, "name2": null, "name3": null, "adm0_pcode": "ID", "adm0_name": "Indonesia", "valid_on": "2020-04-01", "valid_to": null, "area_sqkm": 1.16705357, "version": "v01", "lang": "en", "lang1": null, "lang2": null, "lang3": null, "y_coord": 4.5007013, "x_coord": 97.95548886, "adm1_pcode": "ID11", "adm1_name": "Aceh", "adm1_name1": null, "adm1_name2": null, "adm1_name3": null, "adm2_pcode": "ID1173", "adm2_name": "Kota Langsa", "adm2_name1": null, "adm2_name2": null, "adm2_name3": null, "adm3_pcode": "ID1173021", "adm3_name": "Langsa Baro", "adm3_name1": null, "adm3_name2": null, "adm3_name3": null, "adm4_pcode": "ID1173021003", "adm4_name": "Birem Puntong", "adm4_name1": null, "adm4_name2": null, "adm4_name3": null}, "geometry": {"type": "Point", "coordinates": [97.9554888620001, 4.500701300000117]}}, {"type": "Feature", "properties": {"admin_level": 4, "name": "Birem Rayeuk", "name1": null, "name2": null, "name3": null, "adm0_pcode": "ID", "adm0_name": "Indonesia", "valid_on": "2020-04-01", "valid_to": null, "area_sqkm": 3.05407226, "version": "v01", "lang": "en", "lang1": null, "lang2": null, "lang3": null, "y_coord": 4.5366101, "x_coord": 97.91003848, "adm1_pcode": "ID11", "adm1_name": "Aceh", "adm1_name1": null, "adm1_name2": null, "adm1_name3": null, "adm2_pcode": "ID1105", "adm2_name": "Aceh Timur", "adm2_name1": null, "adm2_name2": null, "adm2_name3": null, "adm3_pcode": "ID1105090", "adm3_name": "Birem Bayeun", "adm3_name1": null, "adm3_name2": null, "adm3_name3": null, "adm4_pcode": "ID1105090015", "adm4_name": "Birem Rayeuk", "adm4_name1": null, "adm4_name2": null, "adm4_name3": null}, "geometry": {"type": "Point", "coordinates": [97.91003848300016, 4.536610100000075]}}, {"type": "Feature", "properties": {"admin_level": 4, "name": "Blang Sinibong", "name1": null, "name2": null, "name3": null, "adm0_pcode": "ID", "adm0_name": "Indonesia", "valid_on": "2020-04-01", "valid_to": null, "area_sqkm": 0.17059728, "version": "v01", "lang": "en", "lang1": null, "lang2": null, "lang3": null, "y_coord": 4.4731721, "x_coord": 97.97521554, "adm1_pcode": "ID11", "adm1_name": "Aceh", "adm1_name1": null, "adm1_name2": null, "adm1_name3": null, "adm2_pcode": "ID1173", "adm2_name": "Kota Langsa", "adm2_name1": null, "adm2_name2": null, "adm2_name3": null, "adm3_pcode": "ID1173030", "adm3_name": "Langsa Kota", "adm3_name1": null, "adm3_name2": null, "adm3_name3": null, "adm4_pcode": "ID1173030011", "adm4_name": "Blang Sinibong", "adm4_name1": null, "adm4_name2": null, "adm4_name3": null}, "geometry": {"type": "Point", "coordinates": [97.97521553900009, 4.47317210000017]}}, {"type": "Feature", "properties": {"admin_level": 4, "name": "Blang Tualang", "name1": null, "name2": null, "name3": null, "adm0_pcode": "ID", "adm0_name": "Indonesia", "valid_on": "2020-04-01", "valid_to": null, "area_sqkm": 14.5059737, "version": "v01", "lang": "en", "lang1": null, "lang2": null, "lang3": null, "y_coord": 4.57514765, "x_coord": 97.86622638, "adm1_pcode": "ID11", "adm1_name": "Aceh", "adm1_name1": null, "adm1_name2": null, "adm1_name3": null, "adm2_pcode": "ID1105", "adm2_name": "Aceh Timur", "adm2_name1": null, "adm2_name2": null, "adm2_name3": null, "adm3_pcode": "ID1105090", "adm3_name": "Birem Bayeun", "adm3_name1": null, "adm3_name2": null, "adm3_name3": null, "adm4_pcode": "ID1105090025", "adm4_name": "Blang Tualang", "adm4_name1": null, "adm4_name2": null, "adm4_name3": null}, "geometry": {"type": "Point", "coordinates": [97.86622638200004, 4.575147650000133]}}, {"type": "Feature", "properties": {"admin_level": 4, "name": "Buket Keranji", "name1": null, "name2": null, "name3": null, "adm0_pcode": "ID", "adm0_name": "Indonesia", "valid_on": "2020-04-01", "valid_to": null, "area_sqkm": 6.81648629, "version": "v01", "lang": "en", "lang1": null, "lang2": null, "lang3": null, "y_coord": 4.3821857, "x_coord": 98.04831151, "adm1_pcode": "ID11", "adm1_name": "Aceh", "adm1_name1": null, "adm1_name2": null, "adm1_name3": null, "adm2_pcode": "ID1114", "adm2_name": "Aceh Tamiang", "adm2_name1": null, "adm2_name2": null, "adm2_name3": null, "adm3_pcode": "ID1114070", "adm3_name": "Karang Baru", "adm3_name1": null, "adm3_name2": null, "adm3_name3": null, "adm4_pcode": "ID1114070045", "adm4_name": "Buket Keranji", "adm4_name1": null, "adm4_name2": null, "adm4_name3": null}, "geometry": {"type": "Point", "coordinates": [98.0483115130001, 4.382185700000093]}}, {"type": "Feature", "properties": {"admin_level": 4, "name": "Buket Meudang Ara", "name1": null, "name2": null, "name3": null, "adm0_pcode": "ID", "adm0_name": "Indonesia", "valid_on": "2020-04-01", "valid_to": null, "area_sqkm": 0.71138412, "version": "v01", "lang": "en", "lang1": null, "lang2": null, "lang3": null, "y_coord": 4.43863815, "x_coord": 97.99162844, "adm1_pcode": "ID11", "adm1_name": "Aceh", "adm1_name1": null, "adm1_name2": null, "adm1_name3": null, "adm2_pcode": "ID1173", "adm2_name": "Kota Langsa", "adm2_name1": null, "adm2_name2": null, "adm2_name3": null, "adm3_pcode": "ID1173010", "adm3_name": "Langsa Timur", "adm3_name1": null, "adm3_name2": null, "adm3_name3": null, "adm4_pcode": "ID1173010007", "adm4_name": "Buket Meudang Ara", "adm4_name1": null, "adm4_name2": null, "adm4_name3": null}, "geometry": {"type": "Point", "coordinates": [97.99162843600016, 4.438638150000088]}}, {"type": "Feature", "properties": {"admin_level": 4, "name": "Buket Meutuah", "name1": null, "name2": null, "name3": null, "adm0_pcode": "ID", "adm0_name": "Indonesia", "valid_on": "2020-04-01", "valid_to": null, "area_sqkm": 2.32939025, "version": "v01", "lang": "en", "lang1": null, "lang2": null, "lang3": null, "y_coord": 4.4193869, "x_coord": 98.02453211, "adm1_pcode": "ID11", "adm1_name": "Aceh", "adm1_name1": null, "adm1_name2": null, "adm1_name3": null, "adm2_pcode": "ID1173", "adm2_name": "Kota Langsa", "adm2_name1": null, "adm2_name2": null, "adm2_name3": null, "adm3_pcode": "ID1173010", "adm3_name": "Langsa Timur", "adm3_name1": null, "adm3_name2": null, "adm3_name3": null, "adm4_pcode": "ID1173010014", "adm4_name": "Buket Meutuah", "adm4_name1": null, "adm4_name2": null, "adm4_name3": null}, "geometry": {"type": "Point", "coordinates": [98.02453210600015, 4.419386900000063]}}, {"type": "Feature", "properties": {"admin_level": 4, "name": "Buket Panjang", "name1": null, "name2": null, "name3": null, "adm0_pcode": "ID", "adm0_name": "Indonesia", "valid_on": "2020-04-01", "valid_to": null, "area_sqkm": 0.97093326, "version": "v01", "lang": "en", "lang1": null, "lang2": null, "lang3": null, "y_coord": 4.3897183, "x_coord": 98.05670854, "adm1_pcode": "ID11", "adm1_name": "Aceh", "adm1_name1": null, "adm1_name2": null, "adm1_name3": null, "adm2_pcode": "ID1114", "adm2_name": "Aceh Tamiang", "adm2_name1": null, "adm2_name2": null, "adm2_name3": null, "adm3_pcode": "ID1114070", "adm3_name": "Karang Baru", "adm3_name1": null, "adm3_name2": null, "adm3_name3": null, "adm4_pcode": "ID1114070040", "adm4_name": "Buket Panjang", "adm4_name1": null, "adm4_name2": null, "adm4_name3": null}, "geometry": {"type": "Point", "coordinates": [98.05670854000005, 4.389718300000027]}}, {"type": "Feature", "properties": {"admin_level": 4, "name": "Buket Panjang II", "name1": null, "name2": null, "name3": null, "adm0_pcode": "ID", "adm0_name": "Indonesia", "valid_on": "2020-04-01", "valid_to": null, "area_sqkm": 3.10576464, "version": "v01", "lang": "en", "lang1": null, "lang2": null, "lang3": null, "y_coord": 4.4120331, "x_coord": 98.03856038, "adm1_pcode": "ID11", "adm1_name": "Aceh", "adm1_name1": null, "adm1_name2": null, "adm1_name3": null, "adm2_pcode": "ID1114", "adm2_name": "Aceh Tamiang", "adm2_name1": null, "adm2_name2": null, "adm2_name3": null, "adm3_pcode": "ID1114080", "adm3_name": "Manyak Payed", "adm3_name1": null, "adm3_name2": null, "adm3_name3": null, "adm4_pcode": "ID1114080004", "adm4_name": "Buket Panjang II", "adm4_name1": null, "adm4_name2": null, "adm4_name3": null}, "geometry": {"type": "Point", "coordinates": [98.03856038300012, 4.412033100000031]}}, {"type": "Feature", "properties": {"admin_level": 4, "name": "Buket Paya", "name1": null, "name2": null, "name3": null, "adm0_pcode": "ID", "adm0_name": "Indonesia", "valid_on": "2020-04-01", "valid_to": null, "area_sqkm": 0.35701557, "version": "v01", "lang": "en", "lang1": null, "lang2": null, "lang3": null, "y_coord": 4.40117, "x_coord": 98.03554338, "adm1_pcode": "ID11", "adm1_name": "Aceh", "adm1_name1": null, "adm1_name2": null, "adm1_name3": null, "adm2_pcode": "ID1114", "adm2_name": "Aceh Tamiang", "adm2_name1": null, "adm2_name2": null, "adm2_name3": null, "adm3_pcode": "ID1114080", "adm3_name": "Manyak Payed", "adm3_name1": null, "adm3_name2": null, "adm3_name3": null, "adm4_pcode": "ID1114080005", "adm4_name": "Buket Paya", "adm4_name1": null, "adm4_name2": null, "adm4_name3": null}, "geometry": {"type": "Point", "coordinates": [98.03554338100008, 4.40117]}}, {"type": "Feature", "properties": {"admin_level": 4, "name": "Buket Pulo", "name1": null, "name2": null, "name3": null, "adm0_pcode": "ID", "adm0_name": "Indonesia", "valid_on": "2020-04-01", "valid_to": null, "area_sqkm": 0.6860623, "version": "v01", "lang": "en", "lang1": null, "lang2": null, "lang3": null, "y_coord": 4.4392812, "x_coord": 97.99678609, "adm1_pcode": "ID11", "adm1_name": "Aceh", "adm1_name1": null, "adm1_name2": null, "adm1_name3": null, "adm2_pcode": "ID1173", "adm2_name": "Kota Langsa", "adm2_name1": null, "adm2_name2": null, "adm2_name3": null, "adm3_pcode": "ID1173010", "adm3_name": "Langsa Timur", "adm3_name1": null, "adm3_name2": null, "adm3_name3": null, "adm4_pcode": "ID1173010010", "adm4_name": "Buket Pulo", "adm4_name1": null, "adm4_name2": null, "adm4_name3": null}, "geometry": {"type": "Point", "coordinates": [97.99678609200004, 4.439281200000153]}}, {"type": "Feature", "properties": {"admin_level": 4, "name": "Buket Rata", "name1": null, "name2": null, "name3": null, "adm0_pcode": "ID", "adm0_name": "Indonesia", "valid_on": "2020-04-01", "valid_to": null, "area_sqkm": 8.97699265, "version": "v01", "lang": "en", "lang1": null, "lang2": null, "lang3": null, "y_coord": 4.4228919, "x_coord": 97.99606608, "adm1_pcode": "ID11", "adm1_name": "Aceh", "adm1_name1": null, "adm1_name2": null, "adm1_name3": null, "adm2_pcode": "ID1173", "adm2_name": "Kota Langsa", "adm2_name1": null, "adm2_name2": null, "adm2_name3": null, "adm3_pcode": "ID1173010", "adm3_name": "Langsa Timur", "adm3_name1": null, "adm3_name2": null, "adm3_name3": null, "adm4_pcode": "ID1173010013", "adm4_name": "Buket Rata", "adm4_name1": null, "adm4_name2": null, "adm4_name3": null}, "geometry": {"type": "Point", "coordinates": [97.99606608400012, 4.422891899999968]}}, {"type": "Feature", "properties": {"admin_level": 4, "name": "Buket Tiga", "name1": null, "name2": null, "name3": null, "adm0_pcode": "ID", "adm0_name": "Indonesia", "valid_on": "2020-04-01", "valid_to": null, "area_sqkm": 2.39729556, "version": "v01", "lang": "en", "lang1": null, "lang2": null, "lang3": null, "y_coord": 4.39135935, "x_coord": 97.94943071, "adm1_pcode": "ID11", "adm1_name": "Aceh", "adm1_name1": null, "adm1_name2": null, "adm1_name3": null, "adm2_pcode": "ID1105", "adm2_name": "Aceh Timur", "adm2_name1": null, "adm2_name2": null, "adm2_name3": null, "adm3_pcode": "ID1105090", "adm3_name": "Birem Bayeun", "adm3_name1": null, "adm3_name2": null, "adm3_name3": null, "adm4_pcode": "ID1105090001", "adm4_name": "Buket Tiga", "adm4_name1": null, "adm4_name2": null, "adm4_name3": null}, "geometry": {"type": "Point", "coordinates": [97.9494307060001, 4.391359350000073]}}, {"type": "Feature", "properties": {"admin_level": 4, "name": "Bukit Panjang I", "name1": null, "name2": null, "name3": null, "adm0_pcode": "ID", "adm0_name": "Indonesia", "valid_on": "2020-04-01", "valid_to": null, "area_sqkm": 7.16220996, "version": "v01", "lang": "en", "lang1": null, "lang2": null, "lang3": null, "y_coord": 4.3889628, "x_coord": 98.03316918, "adm1_pcode": "ID11", "adm1_name": "Aceh", "adm1_name1": null, "adm1_name2": null, "adm1_name3": null, "adm2_pcode": "ID1114", "adm2_name": "Aceh Tamiang", "adm2_name1": null, "adm2_name2": null, "adm2_name3": null, "adm3_pcode": "ID1114080", "adm3_name": "Manyak Payed", "adm3_name1": null, "adm3_name2": null, "adm3_name3": null, "adm4_pcode": "ID1114080006", "adm4_name": "Bukit Panjang I", "adm4_name1": null, "adm4_name2": null, "adm4_name3": null}, "geometry": {"type": "Point", "coordinates": [98.03316918100006, 4.388962800000058]}}, {"type": "Feature", "properties": {"admin_level": 4, "name": "Bukit Seulemak", "name1": null, "name2": null, "name3": null, "adm0_pcode": "ID", "adm0_name": "Indonesia", "valid_on": "2020-04-01", "valid_to": null, "area_sqkm": 9.91890103, "version": "v01", "lang": "en", "lang1": null, "lang2": null, "lang3": null, "y_coord": 4.5783128, "x_coord": 97.88315092, "adm1_pcode": "ID11", "adm1_name": "Aceh", "adm1_name1": null, "adm1_name2": null, "adm1_name3": null, "adm2_pcode": "ID1105", "adm2_name": "Aceh Timur", "adm2_name1": null, "adm2_name2": null, "adm2_name3": null, "adm3_pcode": "ID1105090", "adm3_name": "Birem Bayeun", "adm3_name1": null, "adm3_name2": null, "adm3_name3": null, "adm4_pcode": "ID1105090024", "adm4_name": "Bukit Seulemak", "adm4_name1": null, "adm4_name2": null, "adm4_name3": null}, "geometry": {"type": "Point", "coordinates": [97.88315092300019, 4.578312800000162]}}, {"type": "Feature", "properties": {"admin_level": 4, "name": "Cinta Raja", "name1": null, "name2": null, "name3": null, "adm0_pcode": "ID", "adm0_name": "Indonesia", "valid_on": "2020-04-01", "valid_to": null, "area_sqkm": 7.90092408, "version": "v01", "lang": "en", "lang1": null, "lang2": null, "lang3": null, "y_coord": 4.46042695, "x_coord": 98.03429821, "adm1_pcode": "ID11", "adm1_name": "Aceh", "adm1_name1": null, "adm1_name2": null, "adm1_name3": null, "adm2_pcode": "ID1173", "adm2_name": "Kota Langsa", "adm2_name1": null, "adm2_name2": null, "adm2_name3": null, "adm3_pcode": "ID1173010", "adm3_name": "Langsa Timur", "adm3_name1": null, "adm3_name2": null, "adm3_name3": null, "adm4_pcode": "ID1173010020", "adm4_name": "Cinta Raja", "adm4_name1": null, "adm4_name2": null, "adm4_name3": null}, "geometry": {"type": "Point", "coordinates": [98.03429821200012, 4.460426950000056]}}, {"type": "Feature", "properties": {"admin_level": 4, "name": "Dagang Setia", "name1": null, "name2": null, "name3": null, "adm0_pcode": "ID", "adm0_name": "Indonesia", "valid_on": "2020-04-01", "valid_to": null, "area_sqkm": 2.29042035, "version": "v01", "lang": "en", "lang1": null, "lang2": null, "lang3": null, "y_coord": 4.44005085, "x_coord": 98.0712914, "adm1_pcode": "ID11", "adm1_name": "Aceh", "adm1_name1": null, "adm1_name2": null, "adm1_name3": null, "adm2_pcode": "ID1114", "adm2_name": "Aceh Tamiang", "adm2_name1": null, "adm2_name2": null, "adm2_name3": null, "adm3_pcode": "ID1114080", "adm3_name": "Manyak Payed", "adm3_name1": null, "adm3_name2": null, "adm3_name3": null, "adm4_pcode": "ID1114080027", "adm4_name": "Dagang Setia", "adm4_name1": null, "adm4_name2": null, "adm4_name3": null}, "geometry": {"type": "Point", "coordinates": [98.07129139700004, 4.440050850000091]}}, {"type": "Feature", "properties": {"admin_level": 4, "name": "Damar Siput", "name1": null, "name2": null, "name3": null, "adm0_pcode": "ID", "adm0_name": "Indonesia", "valid_on": "2020-04-01", "valid_to": null, "area_sqkm": 11.97261707, "version": "v01", "lang": "en", "lang1": null, "lang2": null, "lang3": null, "y_coord": 4.61692275, "x_coord": 97.86982384, "adm1_pcode": "ID11", "adm1_name": "Aceh", "adm1_name1": null, "adm1_name2": null, "adm1_name3": null, "adm2_pcode": "ID1105", "adm2_name": "Aceh Timur", "adm2_name1": null, "adm2_name2": null, "adm2_name3": null, "adm3_pcode": "ID1105100", "adm3_name": "Rantau Selamat", "adm3_name1": null, "adm3_name2": null, "adm3_name3": null, "adm4_pcode": "ID1105100004", "adm4_name": "Damar Siput", "adm4_name1": null, "adm4_name2": null, "adm4_name3": null}, "geometry": {"type": "Point", "coordinates": [97.86982384200013, 4.616922750000185]}}, {"type": "Feature", "properties": {"admin_level": 4, "name": "Gampong Baro", "name1": null, "name2": null, "name3": null, "adm0_pcode": "ID", "adm0_name": "Indonesia", "valid_on": "2020-04-01", "valid_to": null, "area_sqkm": 0.2170848, "version": "v01", "lang": "en", "lang1": null, "lang2": null, "lang3": null, "y_coord": 4.46214405, "x_coord": 97.98000372, "adm1_pcode": "ID11", "adm1_name": "Aceh", "adm1_name1": null, "adm1_name2": null, "adm1_name3": null, "adm2_pcode": "ID1173", "adm2_name": "Kota Langsa", "adm2_name1": null, "adm2_name2": null, "adm2_name3": null, "adm3_pcode": "ID1173011", "adm3_name": "Langsa Lama", "adm3_name1": null, "adm3_name2": null, "adm3_name3": null, "adm4_pcode": "ID1173011006", "adm4_name": "Gampong Baro", "adm4_name1": null, "adm4_name2": null, "adm4_name3": null}, "geometry": {"type": "Point", "coordinates": [97.9800037170001, 4.46214405]}}, {"type": "Feature", "properties": {"admin_level": 4, "name": "Gampong Bayeun", "name1": null, "name2": null, "name3": null, "adm0_pcode": "ID", "adm0_name": "Indonesia", "valid_on": "2020-04-01", "valid_to": null, "area_sqkm": 15.01861278, "version": "v01", "lang": "en", "lang1": null, "lang2": null, "lang3": null, "y_coord": 4.58966505, "x_coord": 97.92981325, "adm1_pcode": "ID11", "adm1_name": "Aceh", "adm1_name1": null, "adm1_name2": null, "adm1_name3": null, "adm2_pcode": "ID1105", "adm2_name": "Aceh Timur", "adm2_name1": null, "adm2_name2": null, "adm2_name3": null, "adm3_pcode": "ID1105100", "adm3_name": "Rantau Selamat", "adm3_name1": null, "adm3_name2": null, "adm3_name3": null, "adm4_pcode": "ID1105100009", "adm4_name": "Gampong Bayeun", "adm4_name1": null, "adm4_name2": null, "adm4_name3": null}, "geometry": {"type": "Point", "coordinates": [97.9298132450001, 4.589665050000121]}}, {"type": "Feature", "properties": {"admin_level": 4, "name": "Gampong Blang", "name1": null, "name2": null, "name3": null, "adm0_pcode": "ID", "adm0_name": "Indonesia", "valid_on": "2020-04-01", "valid_to": null, "area_sqkm": 0.28610314, "version": "v01", "lang": "en", "lang1": null, "lang2": null, "lang3": null, "y_coord": 4.47064665, "x_coord": 97.97747493, "adm1_pcode": "ID11", "adm1_name": "Aceh", "adm1_name1": null, "adm1_name2": null, "adm1_name3": null, "adm2_pcode": "ID1173", "adm2_name": "Kota Langsa", "adm2_name1": null, "adm2_name2": null, "adm2_name3": null, "adm3_pcode": "ID1173030", "adm3_name": "Langsa Kota", "adm3_name1": null, "adm3_name2": null, "adm3_name3": null, "adm4_pcode": "ID1173030006", "adm4_name": "Gampong Blang", "adm4_name1": null, "adm4_name2": null, "adm4_name3": null}, "geometry": {"type": "Point", "coordinates": [97.97747493500015, 4.470646650000106]}}, {"type": "Feature", "properties": {"admin_level": 4, "name": "Gampong Daulat", "name1": null, "name2": null, "name3": null, "adm0_pcode": "ID", "adm0_name": "Indonesia", "valid_on": "2020-04-01", "valid_to": null, "area_sqkm": 0.13445585, "version": "v01", "lang": "en", "lang1": null, "lang2": null, "lang3": null, "y_coord": 4.4730442, "x_coord": 97.97106326, "adm1_pcode": "ID11", "adm1_name": "Aceh", "adm1_name1": null, "adm1_name2": null, "adm1_name3": null, "adm2_pcode": "ID1173", "adm2_name": "Kota Langsa", "adm2_name1": null, "adm2_name2": null, "adm2_name3": null, "adm3_pcode": "ID1173030", "adm3_name": "Langsa Kota", "adm3_name1": null, "adm3_name2": null, "adm3_name3": null, "adm4_pcode": "ID1173030009", "adm4_name": "Gampong Daulat", "adm4_name1": null, "adm4_name2": null, "adm4_name3": null}, "geometry": {"type": "Point", "coordinates": [97.97106325800013, 4.473044200000061]}}, {"type": "Feature", "properties": {"admin_level": 4, "name": "Gampong Jawa", "name1": null, "name2": null, "name3": null, "adm0_pcode": "ID", "adm0_name": "Indonesia", "valid_on": "2020-04-01", "valid_to": null, "area_sqkm": 1.22834646, "version": "v01", "lang": "en", "lang1": null, "lang2": null, "lang3": null, "y_coord": 4.4740859, "x_coord": 97.96006742, "adm1_pcode": "ID11", "adm1_name": "Aceh", "adm1_name1": null, "adm1_name2": null, "adm1_name3": null, "adm2_pcode": "ID1173", "adm2_name": "Kota Langsa", "adm2_name1": null, "adm2_name2": null, "adm2_name3": null, "adm3_pcode": "ID1173030", "adm3_name": "Langsa Kota", "adm3_name1": null, "adm3_name2": null, "adm3_name3": null, "adm4_pcode": "ID1173030004", "adm4_name": "Gampong Jawa", "adm4_name1": null, "adm4_name2": null, "adm4_name3": null}, "geometry": {"type": "Point", "coordinates": [97.96006741700012, 4.474085900000091]}}, {"type": "Feature", "properties": {"admin_level": 4, "name": "Gampong Mutia", "name1": null, "name2": null, "name3": null, "adm0_pcode": "ID", "adm0_name": "Indonesia", "valid_on": "2020-04-01", "valid_to": null, "area_sqkm": 0.23990786, "version": "v01", "lang": "en", "lang1": null, "lang2": null, "lang3": null, "y_coord": 4.47571575, "x_coord": 97.97255315, "adm1_pcode": "ID11", "adm1_name": "Aceh", "adm1_name1": null, "adm1_name2": null, "adm1_name3": null, "adm2_pcode": "ID1173", "adm2_name": "Kota Langsa", "adm2_name1": null, "adm2_name2": null, "adm2_name3": null, "adm3_pcode": "ID1173030", "adm3_name": "Langsa Kota", "adm3_name1": null, "adm3_name2": null, "adm3_name3": null, "adm4_pcode": "ID1173030010", "adm4_name": "Gampong Mutia", "adm4_name1": null, "adm4_name2": null, "adm4_name3": null}, "geometry": {"type": "Point", "coordinates": [97.97255314800015, 4.47571575000012]}}, {"type": "Feature", "properties": {"admin_level": 4, "name": "Gampong Teungoh", "name1": null, "name2": null, "name3": null, "adm0_pcode": "ID", "adm0_name": "Indonesia", "valid_on": "2020-04-01", "valid_to": null, "area_sqkm": 0.99685134, "version": "v01", "lang": "en", "lang1": null, "lang2": null, "lang3": null, "y_coord": 4.46479945, "x_coord": 97.97776746, "adm1_pcode": "ID11", "adm1_name": "Aceh", "adm1_name1": null, "adm1_name2": null, "adm1_name3": null, "adm2_pcode": "ID1173", "adm2_name": "Kota Langsa", "adm2_name1": null, "adm2_name2": null, "adm2_name3": null, "adm3_pcode": "ID1173030", "adm3_name": "Langsa Kota", "adm3_name1": null, "adm3_name2": null, "adm3_name3": null, "adm4_pcode": "ID1173030001", "adm4_name": "Gampong Teungoh", "adm4_name1": null, "adm4_name2": null, "adm4_name3": null}, "geometry": {"type": "Point", "coordinates": [97.97776746099998, 4.464799450000157]}}, {"type": "Feature", "properties": {"admin_level": 4, "name": "Gampong Tupah", "name1": null, "name2": null, "name3": null, "adm0_pcode": "ID", "adm0_name": "Indonesia", "valid_on": "2020-04-01", "valid_to": null, "area_sqkm": 2.13677554, "version": "v01", "lang": "en", "lang1": null, "lang2": null, "lang3": null, "y_coord": 4.32512265, "x_coord": 98.05730155, "adm1_pcode": "ID11", "adm1_name": "Aceh", "adm1_name1": null, "adm1_name2": null, "adm1_name3": null, "adm2_pcode": "ID1114", "adm2_name": "Aceh Tamiang", "adm2_name1": null, "adm2_name2": null, "adm2_name3": null, "adm3_pcode": "ID1114070", "adm3_name": "Karang Baru", "adm3_name1": null, "adm3_name2": null, "adm3_name3": null, "adm4_pcode": "ID1114070025", "adm4_name": "Gampong Tupah", "adm4_name1": null, "adm4_name2": null, "adm4_name3": null}, "geometry": {"type": "Point", "coordinates": [98.05730155499998, 4.325122650000083]}}, {"type": "Feature", "properties": {"admin_level": 4, "name": "Gaseh Sayang", "name1": null, "name2": null, "name3": null, "adm0_pcode": "ID", "adm0_name": "Indonesia", "valid_on": "2020-04-01", "valid_to": null, "area_sqkm": 1.36723016, "version": "v01", "lang": "en", "lang1": null, "lang2": null, "lang3": null, "y_coord": 4.4231833, "x_coord": 98.08937717, "adm1_pcode": "ID11", "adm1_name": "Aceh", "adm1_name1": null, "adm1_name2": null, "adm1_name3": null, "adm2_pcode": "ID1114", "adm2_name": "Aceh Tamiang", "adm2_name1": null, "adm2_name2": null, "adm2_name3": null, "adm3_pcode": "ID1114080", "adm3_name": "Manyak Payed", "adm3_name1": null, "adm3_name2": null, "adm3_name3": null, "adm4_pcode": "ID1114080015", "adm4_name": "Gaseh Sayang", "adm4_name1": null, "adm4_name2": null, "adm4_name3": null}, "geometry": {"type": "Point", "coordinates": [98.08937717100008, 4.423183300000119]}}, {"type": "Feature", "properties": {"admin_level": 4, "name": "Gelanggang Merak", "name1": null, "name2": null, "name3": null, "adm0_pcode": "ID", "adm0_name": "Indonesia", "valid_on": "2020-04-01", "valid_to": null, "area_sqkm": 1.91205798, "version": "v01", "lang": "en", "lang1": null, "lang2": null, "lang3": null, "y_coord": 4.42025695, "x_coord": 98.06926291, "adm1_pcode": "ID11", "adm1_name": "Aceh", "adm1_name1": null, "adm1_name2": null, "adm1_name3": null, "adm2_pcode": "ID1114", "adm2_name": "Aceh Tamiang", "adm2_name1": null, "adm2_name2": null, "adm2_name3": null, "adm3_pcode": "ID1114080", "adm3_name": "Manyak Payed", "adm3_name1": null, "adm3_name2": null, "adm3_name3": null, "adm4_pcode": "ID1114080017", "adm4_name": "Gelanggang Merak", "adm4_name1": null, "adm4_name2": null, "adm4_name3": null}, "geometry": {"type": "Point", "coordinates": [98.06926291000019, 4.420256950000123]}}, {"type": "Feature", "properties": {"admin_level": 4, "name": "Geudham", "name1": null, "name2": null, "name3": null, "adm0_pcode": "ID", "adm0_name": "Indonesia", "valid_on": "2020-04-01", "valid_to": null, "area_sqkm": 0.76329566, "version": "v01", "lang": "en", "lang1": null, "lang2": null, "lang3": null, "y_coord": 4.44270705, "x_coord": 98.05274135, "adm1_pcode": "ID11", "adm1_name": "Aceh", "adm1_name1": null, "adm1_name2": null, "adm1_name3": null, "adm2_pcode": "ID1114", "adm2_name": "Aceh Tamiang", "adm2_name1": null, "adm2_name2": null, "adm2_name3": null, "adm3_pcode": "ID1114080", "adm3_name": "Manyak Payed", "adm3_name1": null, "adm3_name2": null, "adm3_name3": null, "adm4_pcode": "ID1114080023", "adm4_name": "Geudham", "adm4_name1": null, "adm4_name2": null, "adm4_name3": null}, "geometry": {"type": "Point", "coordinates": [98.05274134500019, 4.442707050000081]}}, {"type": "Feature", "properties": {"admin_level": 4, "name": "Geudubang Aceh", "name1": null, "name2": null, "name3": null, "adm0_pcode": "ID", "adm0_name": "Indonesia", "valid_on": "2020-04-01", "valid_to": null, "area_sqkm": 1.53342144, "version": "v01", "lang": "en", "lang1": null, "lang2": null, "lang3": null, "y_coord": 4.4626321, "x_coord": 97.93146986, "adm1_pcode": "ID11", "adm1_name": "Aceh", "adm1_name1": null, "adm1_name2": null, "adm1_name3": null, "adm2_pcode": "ID1173", "adm2_name": "Kota Langsa", "adm2_name1": null, "adm2_name2": null, "adm2_name3": null, "adm3_pcode": "ID1173021", "adm3_name": "Langsa Baro", "adm3_name1": null, "adm3_name2": null, "adm3_name3": null, "adm4_pcode": "ID1173021009", "adm4_name": "Geudubang Aceh", "adm4_name1": null, "adm4_name2": null, "adm4_name3": null}, "geometry": {"type": "Point", "coordinates": [97.93146986300002, 4.462632100000064]}}, {"type": "Feature", "properties": {"admin_level": 4, "name": "Geudubang Jawa", "name1": null, "name2": null, "name3": null, "adm0_pcode": "ID", "adm0_name": "Indonesia", "valid_on": "2020-04-01", "valid_to": null, "area_sqkm": 0.53904798, "version": "v01", "lang": "en", "lang1": null, "lang2": null, "lang3": null, "y_coord": 4.4692787, "x_coord": 97.94688489, "adm1_pcode": "ID11", "adm1_name": "Aceh", "adm1_name1": null, "adm1_name2": null, "adm1_name3": null, "adm2_pcode": "ID1173", "adm2_name": "Kota Langsa", "adm2_name1": null, "adm2_name2": null, "adm2_name3": null, "adm3_pcode": "ID1173021", "adm3_name": "Langsa Baro", "adm3_name1": null, "adm3_name2": null, "adm3_name3": null, "adm4_pcode": "ID1173021008", "adm4_name": "Geudubang Jawa", "adm4_name1": null, "adm4_name2": null, "adm4_name3": null}, "geometry": {"type": "Point", "coordinates": [97.94688489400016, 4.469278700000075]}}, {"type": "Feature", "properties": {"admin_level": 4, "name": "Ie Bintah", "name1": null, "name2": null, "name3": null, "adm0_pcode": "ID", "adm0_name": "Indonesia", "valid_on": "2020-04-01", "valid_to": null, "area_sqkm": 1.2916501, "version": "v01", "lang": "en", "lang1": null, "lang2": null, "lang3": null, "y_coord": 4.4031167, "x_coord": 98.06825895, "adm1_pcode": "ID11", "adm1_name": "Aceh", "adm1_name1": null, "adm1_name2": null, "adm1_name3": null, "adm2_pcode": "ID1114", "adm2_name": "Aceh Tamiang", "adm2_name1": null, "adm2_name2": null, "adm2_name3": null, "adm3_pcode": "ID1114080", "adm3_name": "Manyak Payed", "adm3_name1": null, "adm3_name2": null, "adm3_name3": null, "adm4_pcode": "ID1114080012", "adm4_name": "Ie Bintah", "adm4_name1": null, "adm4_name2": null, "adm4_name3": null}, "geometry": {"type": "Point", "coordinates": [98.06825895300017, 4.403116700000169]}}, {"type": "Feature", "properties": {"admin_level": 4, "name": "Jambur Labu", "name1": null, "name2": null, "name3": null, "adm0_pcode": "ID", "adm0_name": "Indonesia", "valid_on": "2020-04-01", "valid_to": null, "area_sqkm": 146.28250212, "version": "v01", "lang": "en", "lang1": null, "lang2": null, "lang3": null, "y_coord": 4.39454445, "x_coord": 97.8404076, "adm1_pcode": "ID11", "adm1_name": "Aceh", "adm1_name1": null, "adm1_name2": null, "adm1_name3": null, "adm2_pcode": "ID1105", "adm2_name": "Aceh Timur", "adm2_name1": null, "adm2_name2": null, "adm2_name3": null, "adm3_pcode": "ID1105090", "adm3_name": "Birem Bayeun", "adm3_name1": null, "adm3_name2": null, "adm3_name3": null, "adm4_pcode": "ID1105090006", "adm4_name": "Jambur Labu", "adm4_name1": null, "adm4_name2": null, "adm4_name3": null}, "geometry": {"type": "Point", "coordinates": [97.84040759700014, 4.394544450000183]}}]}